IRIDIUM 159             
1 43578U 18061K   23250.60919662  .00000010  00000+0 -33282-5 0  9998
2 43578  86.3955 120.3542 0002109  88.6849 271.4589 14.34215054268109
IRIDIUM 180             
1 43922U 19002A   23250.39938638  .00000127  00000+0  38230-4 0  9992
2 43922  86.3936  57.2714 0001931  92.8145 267.3272 14.34218659243681
IRIDIUM 176             
1 43923U 19002B   23250.89640999  .00000496  00000+0  74775-4 0  9991
2 43923  86.6067  57.0983 0002273  89.7448 270.4029 14.72253920250165
IRIDIUM 168             
1 43924U 19002C   23250.53258751  .00000111  00000+0  32495-4 0  9991
2 43924  86.3943  57.2644 0002017  92.4705 267.6722 14.34216682243684
IRIDIUM 173             
1 43925U 19002D   23250.86875378  .00000127  00000+0  38316-4 0  9993
2 43925  86.3935  57.0540 0002092  93.2852 266.8583 14.34217858243710
IRIDIUM 169             
1 43926U 19002E   23250.82465962  .00000116  00000+0  31501-4 0  9991
2 43926  86.4170  88.7111 0005446  84.7098 275.4721 14.38619013244535
IRIDIUM 172             
1 43927U 19002F   23250.58330414  .00000113  00000+0  33313-4 0  9998
2 43927  86.3936  57.1783 0002014  92.8566 267.2861 14.34215333243680
IRIDIUM 175             
1 43928U 19002G   23250.89020718  .00001224  00000+0  19009-3 0  9995
2 43928  86.1504  46.2529 0002206  91.4759 268.6710 14.72255954250152
